IRIDIUM 124             
1 42810U 17039H   24131.83732876  .00001293  00000+0  37820-3 0  9997
2 42810  86.4495 251.0284 0002054  92.8636 267.2800 14.43290188364435
IRIDIUM 128             
1 42811U 17039J   24131.82521540  .00000277  00000+0  91830-4 0  9994
2 42811  86.3977 345.8553 0002048  83.6765 276.4664 14.34219096359999
IRIDIUM 121             
1 42812U 17039K   24131.92326856  .00000258  00000+0  84917-4 0  9996
2 42812  86.3936 314.3133 0002107  89.6650 270.4788 14.34218462359857
IRIDIUM 133             
1 42955U 17061A   24131.85692670  .00000465  00000+0  15906-3 0  9992
2 42955  86.3979 345.9409 0002206  84.9912 275.1535 14.34219972344793
IRIDIUM 122             
1 42957U 17061C   24131.67933449  .00000303  00000+0  10106-3 0  9994
2 42957  86.3975 345.9498 0002117  86.0750 274.0688 14.34219862344776
IRIDIUM 129             
1 42958U 17061D   24131.35585443  .00000111  00000+0  32735-4 0  9997
2 42958  86.3980 346.1441 0002187  82.6323 277.5121 14.34218940344742
